[
  {
    "COMMENT": "GENERATED VIA SPACETRACK.ORG API",
    "ORIGINATOR": "18 SPCS",
    "NORAD_CAT_ID": "48621",
    "OBJECT_NAME": "HAIYANG 2D",
    "OBJECT_TYPE": "PAYLOAD",
    "CLASSIFICATION_TYPE": "U",
    "INTLDES": "21043A",
    "EPOCH": "2022-03-27 05:34:38",
    "EPOCH_MICROSECONDS": "908992",
    "MEAN_MOTION": "13.83371076",
    "ECCENTRICITY": "0.0009081",
    "INCLINATION": "65.9968",
    "RA_OF_ASC_NODE": "186.1252",
    "ARG_OF_PERICENTER": "282.1348",
    "MEAN_ANOMALY": "77.8721",
    "EPHEMERIS_TYPE": "0",
    "ELEMENT_SET_NO": "999",
    "REV_AT_EPOCH": "4316",
    "BSTAR": "-0.00010847",
    "MEAN_MOTION_DOT": "-0.00000201",
    "MEAN_MOTION_DDOT": "0",
    "FILE": "3376067",
    "TLE_LINE0": "0 HAIYANG 2D",
    "TLE_LINE1": "1 48621U 21043A   22086.23239478 -.00000201  00000-0 -10847-3 0  9995",
    "TLE_LINE2": "2 48621  65.9968 186.1252 0009081 282.1348  77.8721 13.83371076 43162",
    "OBJECT_ID": "2021-043A",
    "OBJECT_NUMBER": "48621",
    "SEMIMAJOR_AXIS": "7330.091",
    "PERIOD": "104.094",
    "APOGEE": "958.613",
    "PERIGEE": "945.300",
    "DECAYED": "0"
  },
  {
    "COMMENT": "GENERATED VIA SPACETRACK.ORG API",
    "ORIGINATOR": "18 SPCS",
    "NORAD_CAT_ID": "48621",
    "OBJECT_NAME": "HAIYANG 2D",
    "OBJECT_TYPE": "PAYLOAD",
    "CLASSIFICATION_TYPE": "U",
    "INTLDES": "21043A",
    "EPOCH": "2022-03-27 05:34:38",
    "EPOCH_MICROSECONDS": "908992",
    "MEAN_MOTION": "13.83371076",
    "ECCENTRICITY": "0.0009081",
    "INCLINATION": "65.9968",
    "RA_OF_ASC_NODE": "186.1252",
    "ARG_OF_PERICENTER": "282.1348",
    "MEAN_ANOMALY": "77.8721",
    "EPHEMERIS_TYPE": "0",
    "ELEMENT_SET_NO": "999",
    "REV_AT_EPOCH": "4316",
    "BSTAR": "-0.00010847",
    "MEAN_MOTION_DOT": "-0.00000201",
    "MEAN_MOTION_DDOT": "0",
    "FILE": "3376641",
    "TLE_LINE0": "0 HAIYANG 2D",
    "TLE_LINE1": "1 48621U 21043A   22086.23239478 -.00000201  00000-0 -10847-3 0  9995",
    "TLE_LINE2": "2 48621  65.9968 186.1252 0009081 282.1348  77.8721 13.83371076 43162",
    "OBJECT_ID": "2021-043A",
    "OBJECT_NUMBER": "48621",
    "SEMIMAJOR_AXIS": "7330.091",
    "PERIOD": "104.094",
    "APOGEE": "958.613",
    "PERIGEE": "945.300",
    "DECAYED": "0"
  },
  {
    "COMMENT": "GENERATED VIA SPACETRACK.ORG API",
    "ORIGINATOR": "18 SPCS",
    "NORAD_CAT_ID": "48621",
    "OBJECT_NAME": "HAIYANG 2D",
    "OBJECT_TYPE": "PAYLOAD",
    "CLASSIFICATION_TYPE": "U",
    "INTLDES": "21043A",
    "EPOCH": "2022-03-27 17:43:22",
    "EPOCH_MICROSECONDS": "845504",
    "MEAN_MOTION": "13.83371621",
    "ECCENTRICITY": "0.0009091",
    "INCLINATION": "65.9969",
    "RA_OF_ASC_NODE": "184.8648",
    "ARG_OF_PERICENTER": "282.1267",
    "MEAN_ANOMALY": "77.8831",
    "EPHEMERIS_TYPE": "0",
    "ELEMENT_SET_NO": "999",
    "REV_AT_EPOCH": "4323",
    "BSTAR": "-0.000053835",
    "MEAN_MOTION_DOT": "-0.00000141",
    "MEAN_MOTION_DDOT": "0",
    "FILE": "3376980",
    "TLE_LINE0": "0 HAIYANG 2D",
    "TLE_LINE1": "1 48621U 21043A   22086.73845886 -.00000141  00000-0 -53835-4 0  9994",
    "TLE_LINE2": "2 48621  65.9969 184.8648 0009091 282.1267  77.8831 13.83371621 43234",
    "OBJECT_ID": "2021-043A",
    "OBJECT_NUMBER": "48621",
    "SEMIMAJOR_AXIS": "7330.089",
    "PERIOD": "104.094",
    "APOGEE": "958.618",
    "PERIGEE": "945.291",
    "DECAYED": "0"
  },
  {
    "COMMENT": "GENERATED VIA SPACETRACK.ORG API",
    "ORIGINATOR": "18 SPCS",
    "NORAD_CAT_ID": "48621",
    "OBJECT_NAME": "HAIYANG 2D",
    "OBJECT_TYPE": "PAYLOAD",
    "CLASSIFICATION_TYPE": "U",
    "INTLDES": "21043A",
    "EPOCH": "2022-03-27 21:11:35",
    "EPOCH_MICROSECONDS": "319552",
    "MEAN_MOTION": "13.83371717",
    "ECCENTRICITY": "0.0009087",
    "INCLINATION": "65.9969",
    "RA_OF_ASC_NODE": "184.505",
    "ARG_OF_PERICENTER": "282.2219",
    "MEAN_ANOMALY": "77.7836",
    "EPHEMERIS_TYPE": "0",
    "ELEMENT_SET_NO": "999",
    "REV_AT_EPOCH": "4325",
    "BSTAR": "-0.000044226",
    "MEAN_MOTION_DOT": "-0.0000013",
    "MEAN_MOTION_DDOT": "0",
    "FILE": "3377053",
    "TLE_LINE0": "0 HAIYANG 2D",
    "TLE_LINE1": "1 48621U 21043A   22086.88304768 -.00000130  00000-0 -44226-4 0  9991",
    "TLE_LINE2": "2 48621  65.9969 184.5050 0009087 282.2219  77.7836 13.83371717 43253",
    "OBJECT_ID": "2021-043A",
    "OBJECT_NUMBER": "48621",
    "SEMIMAJOR_AXIS": "7330.089",
    "PERIOD": "104.093",
    "APOGEE": "958.615",
    "PERIGEE": "945.293",
    "DECAYED": "0"
  },
  {
    "COMMENT": "GENERATED VIA SPACETRACK.ORG API",
    "ORIGINATOR": "18 SPCS",
    "NORAD_CAT_ID": "48621",
    "OBJECT_NAME": "HAIYANG 2D",
    "OBJECT_TYPE": "PAYLOAD",
    "CLASSIFICATION_TYPE": "U",
    "INTLDES": "21043A",
    "EPOCH": "2022-03-28 07:36:12",
    "EPOCH_MICROSECONDS": "955968",
    "MEAN_MOTION": "13.83372059",
    "ECCENTRICITY": "0.0009083",
    "INCLINATION": "65.997",
    "RA_OF_ASC_NODE": "183.4251",
    "ARG_OF_PERICENTER": "281.9303",
    "MEAN_ANOMALY": "78.0766",
    "EPHEMERIS_TYPE": "0",
    "ELEMENT_SET_NO": "999",
    "REV_AT_EPOCH": "4331",
    "BSTAR": "-0.000014242",
    "MEAN_MOTION_DOT": "-0.00000097",
    "MEAN_MOTION_DDOT": "0",
    "FILE": "3377413",
    "TLE_LINE0": "0 HAIYANG 2D",
    "TLE_LINE1": "1 48621U 21043A   22087.31681662 -.00000097  00000-0 -14242-4 0  9998",
    "TLE_LINE2": "2 48621  65.9970 183.4251 0009083 281.9303  78.0766 13.83372059 43315",
    "OBJECT_ID": "2021-043A",
    "OBJECT_NUMBER": "48621",
    "SEMIMAJOR_AXIS": "7330.088",
    "PERIOD": "104.093",
    "APOGEE": "958.611",
    "PERIGEE": "945.295",
    "DECAYED": "0"
  },
  {
    "COMMENT": "GENERATED VIA SPACETRACK.ORG API",
    "ORIGINATOR": "18 SPCS",
    "NORAD_CAT_ID": "48621",
    "OBJECT_NAME": "HAIYANG 2D",
    "OBJECT_TYPE": "PAYLOAD",
    "CLASSIFICATION_TYPE": "U",
    "INTLDES": "21043A",
    "EPOCH": "2022-03-28 12:48:31",
    "EPOCH_MICROSECONDS": "752576",
    "MEAN_MOTION": "13.83372216",
    "ECCENTRICITY": "0.0009099",
    "INCLINATION": "65.9971",
    "RA_OF_ASC_NODE": "182.8853",
    "ARG_OF_PERICENTER": "281.5605",
    "MEAN_ANOMALY": "78.4457",
    "EPHEMERIS_TYPE": "0",
    "ELEMENT_SET_NO": "999",
    "REV_AT_EPOCH": "4334",
    "BSTAR": "0.00000056471",
    "MEAN_MOTION_DOT": "-0.00000081",
    "MEAN_MOTION_DDOT": "0",
    "FILE": "3377801",
    "TLE_LINE0": "0 HAIYANG 2D",
    "TLE_LINE1": "1 48621U 21043A   22087.53370084 -.00000081  00000-0  56471-6 0  9999",
    "TLE_LINE2": "2 48621  65.9971 182.8853 0009099 281.5605  78.4457 13.83372216 43344",
    "OBJECT_ID": "2021-043A",
    "OBJECT_NUMBER": "48621",
    "SEMIMAJOR_AXIS": "7330.087",
    "PERIOD": "104.093",
    "APOGEE": "958.622",
    "PERIGEE": "945.283",
    "DECAYED": "0"
  },
  {
    "COMMENT": "GENERATED VIA SPACETRACK.ORG API",
    "ORIGINATOR": "18 SPCS",
    "NORAD_CAT_ID": "48621",
    "OBJECT_NAME": "HAIYANG 2D",
    "OBJECT_TYPE": "PAYLOAD",
    "CLASSIFICATION_TYPE": "U",
    "INTLDES": "21043A",
    "EPOCH": "2022-03-30 16:51:40",
    "EPOCH_MICROSECONDS": "2912",
    "MEAN_MOTION": "13.83372913",
    "ECCENTRICITY": "0.0009139",
    "INCLINATION": "65.9976",
    "RA_OF_ASC_NODE": "177.4866",
    "ARG_OF_PERICENTER": "281.686",
    "MEAN_ANOMALY": "78.3229",
    "EPHEMERIS_TYPE": "0",
    "ELEMENT_SET_NO": "999",
    "REV_AT_EPOCH": "4364",
    "BSTAR": "0.00004927",
    "MEAN_MOTION_DOT": "-0.00000027",
    "MEAN_MOTION_DDOT": "0",
    "FILE": "3380449",
    "TLE_LINE0": "0 HAIYANG 2D",
    "TLE_LINE1": "1 48621U 21043A   22089.70254633 -.00000027  00000-0  49270-4 0  9998",
    "TLE_LINE2": "2 48621  65.9976 177.4866 0009139 281.6860  78.3229 13.83372913 43645",
    "OBJECT_ID": "2021-043A",
    "OBJECT_NUMBER": "48621",
    "SEMIMAJOR_AXIS": "7330.085",
    "PERIOD": "104.093",
    "APOGEE": "958.649",
    "PERIGEE": "945.251",
    "DECAYED": "0"
  },
  {
    "COMMENT": "GENERATED VIA SPACETRACK.ORG API",
    "ORIGINATOR": "18 SPCS",
    "NORAD_CAT_ID": "48621",
    "OBJECT_NAME": "HAIYANG 2D",
    "OBJECT_TYPE": "PAYLOAD",
    "CLASSIFICATION_TYPE": "U",
    "INTLDES": "21043A",
    "EPOCH": "2022-03-30 20:19:52",
    "EPOCH_MICROSECONDS": "469184",
    "MEAN_MOTION": "13.83372925",
    "ECCENTRICITY": "0.0009144",
    "INCLINATION": "65.9976",
    "RA_OF_ASC_NODE": "177.1266",
    "ARG_OF_PERICENTER": "281.4242",
    "MEAN_ANOMALY": "78.5802",
    "EPHEMERIS_TYPE": "0",
    "ELEMENT_SET_NO": "999",
    "REV_AT_EPOCH": "4366",
    "BSTAR": "0.000048893",
    "MEAN_MOTION_DOT": "-0.00000027",
    "MEAN_MOTION_DDOT": "0",
    "FILE": "3380787",
    "TLE_LINE0": "0 HAIYANG 2D",
    "TLE_LINE1": "1 48621U 21043A   22089.84713506 -.00000027  00000-0  48893-4 0  9992",
    "TLE_LINE2": "2 48621  65.9976 177.1266 0009144 281.4242  78.5802 13.83372925 43668",
    "OBJECT_ID": "2021-043A",
    "OBJECT_NUMBER": "48621",
    "SEMIMAJOR_AXIS": "7330.085",
    "PERIOD": "104.093",
    "APOGEE": "958.652",
    "PERIGEE": "945.247",
    "DECAYED": "0"
  }
]